{
"type": "FeatureCollection",
"name": "TW_yangmei_shop_tw",
"crs": { "type": "name", "properties": { "name": "urn:ogc:def:crs:OGC:1.3:CRS84" } },
"features": [
{ "type": "Feature", "properties": { "element": "node", "id": 4243925117, "brand": "遠傳電信", "brand:en": "FarEasTone", "brand:wikidata": "Q5434486", "brand:wikipedia": "zh:遠傳電信", "brand:zh": "遠傳電信", "name": "遠傳電信", "name:en": "FarEasTone", "name:zh": "遠傳電信", "shop": "telecommunication", "brand:nan": null, "brand:nan-Hant": null, "brand:nan-Latn-pehoeji": null, "brand:nan-Latn-tailo": null, "name:nan": null, "name:nan-Hant": null, "name:nan-Latn-pehoeji": null, "name:nan-Latn-tailo": null, "addr:city": null, "addr:country": null, "addr:district": null, "addr:floor": null, "addr:housenumber": null, "addr:street": null, "alt_name": null, "branch": null, "name:zh-Hant": null, "office": null, "opening_hours": null }, "geometry": { "type": "Point", "coordinates": [ 121.1455136, 24.907166 ] } },
{ "type": "Feature", "properties": { "element": "node", "id": 7694541927, "brand": "全國電子", "brand:en": "E-life Mall", "brand:wikidata": "Q10891540", "brand:wikipedia": null, "brand:zh": "全國電子", "name": "全國電子", "name:en": "E-life Mall", "name:zh": "全國電子", "shop": "electronics", "brand:nan": "Choân-kok Tiān-chú", "brand:nan-Hant": "全國電子", "brand:nan-Latn-pehoeji": "Choân-kok Tiān-chú", "brand:nan-Latn-tailo": "Tsuân-kok Tiān-tsú", "name:nan": "Choân-kok Tiān-chú", "name:nan-Hant": "全國電子", "name:nan-Latn-pehoeji": "Choân-kok Tiān-chú", "name:nan-Latn-tailo": "Tsuân-kok Tiān-tsú", "addr:city": null, "addr:country": null, "addr:district": null, "addr:floor": null, "addr:housenumber": null, "addr:street": null, "alt_name": null, "branch": null, "name:zh-Hant": null, "office": null, "opening_hours": null }, "geometry": { "type": "Point", "coordinates": [ 121.1466265, 24.9074091 ] } },
{ "type": "Feature", "properties": { "element": "node", "id": 9880178106, "brand": null, "brand:en": null, "brand:wikidata": null, "brand:wikipedia": null, "brand:zh": null, "name": "蝦皮店到店", "name:en": "Shopee Xpress", "name:zh": "蝦皮店到店", "shop": "convenience", "brand:nan": null, "brand:nan-Hant": null, "brand:nan-Latn-pehoeji": null, "brand:nan-Latn-tailo": null, "name:nan": null, "name:nan-Hant": null, "name:nan-Latn-pehoeji": null, "name:nan-Latn-tailo": null, "addr:city": "桃園市", "addr:country": "TW", "addr:district": "楊梅區", "addr:floor": "1", "addr:housenumber": "152", "addr:street": "中山路", "alt_name": "Shopee Xpress", "branch": "楊梅中山店", "name:zh-Hant": "蝦皮店到店", "office": "courier", "opening_hours": "Mo-Su 10:30-22:00" }, "geometry": { "type": "Point", "coordinates": [ 121.1444663, 24.9068669 ] } }
]
}
